[{"OBJECT_NAME":"SUPERVIEW NEO-1 02","OBJECT_ID":"2022-043C","EPOCH":"2026-03-09T23:18:16.407072","MEAN_MOTION":15.15488211,"ECCENTRICITY":0.00011754,"INCLINATION":97.3469,"RA_OF_ASC_NODE":144.9918,"ARG_OF_PERICENTER":5.9221,"MEAN_ANOMALY":354.2026,"EPHEMERIS_TYPE":0,"CLASSIFICATION_TYPE":"U","NORAD_CAT_ID":52322,"ELEMENT_SET_NO":999,"REV_AT_EPOCH":21454,"BSTAR":0.00034150894,"MEAN_MOTION_DOT":6.402e-5,"MEAN_MOTION_DDOT":0},{"OBJECT_NAME":"OKEAN-2","OBJECT_ID":"1990-018A","EPOCH":"2026-03-09T23:36:10.183680","MEAN_MOTION":15.15649196,"ECCENTRICITY":0.00049727,"INCLINATION":82.5017,"RA_OF_ASC_NODE":331.5686,"ARG_OF_PERICENTER":303.4328,"MEAN_ANOMALY":67.9927,"EPHEMERIS_TYPE":0,"CLASSIFICATION_TYPE":"U","NORAD_CAT_ID":20510,"ELEMENT_SET_NO":999,"REV_AT_EPOCH":93903,"BSTAR":0.00028442133,"MEAN_MOTION_DOT":5.437e-5,"MEAN_MOTION_DDOT":0}]
